[{"CCSDS_OMM_VERS":"2.0","COMMENT":"GENERATED VIA SPACE-TRACK.ORG API","CREATION_DATE":"2023-04-08T19:06:10","ORIGINATOR":"18 SPCS","OBJECT_NAME":"GALILEO-FM2","OBJECT_ID":"2011-060B","CENTER_NAME":"EARTH","REF_FRAME":"TEME","TIME_SYSTEM":"UTC","MEAN_ELEMENT_THEORY":"SGP4","EPOCH":"2023-04-08T10:43:37.586784","MEAN_MOTION":"1.70475317","ECCENTRICITY":"0.00048990","INCLINATION":"57.0824","RA_OF_ASC_NODE":"13.3295","ARG_OF_PERICENTER":"348.7386","MEAN_ANOMALY":"145.4015","EPHEMERIS_TYPE":"0","CLASSIFICATION_TYPE":"U","NORAD_CAT_ID":"37847","ELEMENT_SET_NO":"999","REV_AT_EPOCH":"7125","BSTAR":"0.00000000000000","MEAN_MOTION_DOT":"-0.00000079","MEAN_MOTION_DDOT":"0.0000000000000","SEMIMAJOR_AXIS":"29600.168","PERIOD":"844.697","APOAPSIS":"23236.534","PERIAPSIS":"23207.531","OBJECT_TYPE":"PAYLOAD","RCS_SIZE":"LARGE","COUNTRY_CODE":"ESA","LAUNCH_DATE":"2011-10-21","SITE":"FRGUI","DECAY_DATE":null,"FILE":"3883527","GP_ID":"229720103","TLE_LINE0":"0 GALILEO-FM2","TLE_LINE1":"1 37847U 11060B   23098.44696281 -.00000079  00000-0  00000-0 0  9996","TLE_LINE2":"2 37847  57.0824  13.3295 0004899 348.7386 145.4015  1.70475317 71259"},{"CCSDS_OMM_VERS":"2.0","COMMENT":"GENERATED VIA SPACE-TRACK.ORG API","CREATION_DATE":"2023-04-10T04:07:24","ORIGINATOR":"18 SPCS","OBJECT_NAME":"GALILEO-FM2","OBJECT_ID":"2011-060B","CENTER_NAME":"EARTH","REF_FRAME":"TEME","TIME_SYSTEM":"UTC","MEAN_ELEMENT_THEORY":"SGP4","EPOCH":"2023-04-09T16:32:13.860384","MEAN_MOTION":"1.70475295","ECCENTRICITY":"0.00048700","INCLINATION":"57.0824","RA_OF_ASC_NODE":"13.2959","ARG_OF_PERICENTER":"348.9475","MEAN_ANOMALY":"187.4870","EPHEMERIS_TYPE":"0","CLASSIFICATION_TYPE":"U","NORAD_CAT_ID":"37847","ELEMENT_SET_NO":"999","REV_AT_EPOCH":"7127","BSTAR":"0.00000000000000","MEAN_MOTION_DOT":"-0.00000079","MEAN_MOTION_DDOT":"0.0000000000000","SEMIMAJOR_AXIS":"29600.170","PERIOD":"844.697","APOAPSIS":"23236.450","PERIAPSIS":"23207.620","OBJECT_TYPE":"PAYLOAD","RCS_SIZE":"LARGE","COUNTRY_CODE":"ESA","LAUNCH_DATE":"2011-10-21","SITE":"FRGUI","DECAY_DATE":null,"FILE":"3884641","GP_ID":"229800023","TLE_LINE0":"0 GALILEO-FM2","TLE_LINE1":"1 37847U 11060B   23099.68904931 -.00000079  00000-0  00000-0 0  9997","TLE_LINE2":"2 37847  57.0824  13.2959 0004870 348.9475 187.4870  1.70475295 71277"},{"CCSDS_OMM_VERS":"2.0","COMMENT":"GENERATED VIA SPACE-TRACK.ORG API","CREATION_DATE":"2023-04-09T23:46:12","ORIGINATOR":"18 SPCS","OBJECT_NAME":"GALILEO-FM2","OBJECT_ID":"2011-060B","CENTER_NAME":"EARTH","REF_FRAME":"TEME","TIME_SYSTEM":"UTC","MEAN_ELEMENT_THEORY":"SGP4","EPOCH":"2023-04-09T16:32:13.860384","MEAN_MOTION":"1.70475295","ECCENTRICITY":"0.00048700","INCLINATION":"57.0824","RA_OF_ASC_NODE":"13.2959","ARG_OF_PERICENTER":"348.9475","MEAN_ANOMALY":"187.4870","EPHEMERIS_TYPE":"0","CLASSIFICATION_TYPE":"U","NORAD_CAT_ID":"37847","ELEMENT_SET_NO":"999","REV_AT_EPOCH":"7139","BSTAR":"0.00000000000000","MEAN_MOTION_DOT":"-0.00000079","MEAN_MOTION_DDOT":"0.0000000000000","SEMIMAJOR_AXIS":"29600.170","PERIOD":"844.697","APOAPSIS":"23236.450","PERIAPSIS":"23207.620","OBJECT_TYPE":"PAYLOAD","RCS_SIZE":"LARGE","COUNTRY_CODE":"ESA","LAUNCH_DATE":"2011-10-21","SITE":"FRGUI","DECAY_DATE":null,"FILE":"3884513","GP_ID":"229783473","TLE_LINE0":"0 GALILEO-FM2","TLE_LINE1":"1 37847U 11060B   23099.68904931 -.00000079  00000-0  00000+0 0  9996","TLE_LINE2":"2 37847  57.0824  13.2959 0004870 348.9475 187.4870  1.70475295 71390"},{"CCSDS_OMM_VERS":"2.0","COMMENT":"GENERATED VIA SPACE-TRACK.ORG API","CREATION_DATE":"2023-04-15T19:46:36","ORIGINATOR":"18 SPCS","OBJECT_NAME":"GALILEO-FM2","OBJECT_ID":"2011-060B","CENTER_NAME":"EARTH","REF_FRAME":"TEME","TIME_SYSTEM":"UTC","MEAN_ELEMENT_THEORY":"SGP4","EPOCH":"2023-04-15T13:30:36.990432","MEAN_MOTION":"1.70475248","ECCENTRICITY":"0.00047840","INCLINATION":"57.0834","RA_OF_ASC_NODE":"13.1364","ARG_OF_PERICENTER":"350.0360","MEAN_ANOMALY":"191.3189","EPHEMERIS_TYPE":"0","CLASSIFICATION_TYPE":"U","NORAD_CAT_ID":"37847","ELEMENT_SET_NO":"999","REV_AT_EPOCH":"7137","BSTAR":"0.00000000000000","MEAN_MOTION_DOT":"-0.00000099","MEAN_MOTION_DDOT":"0.0000000000000","SEMIMAJOR_AXIS":"29600.176","PERIOD":"844.697","APOAPSIS":"23236.201","PERIAPSIS":"23207.880","OBJECT_TYPE":"PAYLOAD","RCS_SIZE":"LARGE","COUNTRY_CODE":"ESA","LAUNCH_DATE":"2011-10-21","SITE":"FRGUI","DECAY_DATE":null,"FILE":"3887974","GP_ID":"230089918","TLE_LINE0":"0 GALILEO-FM2","TLE_LINE1":"1 37847U 11060B   23105.56292813 -.00000099  00000-0  00000-0 0  9993","TLE_LINE2":"2 37847  57.0834  13.1364 0004784 350.0360 191.3189  1.70475248 71374"},{"CCSDS_OMM_VERS":"2.0","COMMENT":"GENERATED VIA SPACE-TRACK.ORG API","CREATION_DATE":"2023-04-15T15:56:13","ORIGINATOR":"18 SPCS","OBJECT_NAME":"GALILEO-FM2","OBJECT_ID":"2011-060B","CENTER_NAME":"EARTH","REF_FRAME":"TEME","TIME_SYSTEM":"UTC","MEAN_ELEMENT_THEORY":"SGP4","EPOCH":"2023-04-15T13:30:36.990432","MEAN_MOTION":"1.70475248","ECCENTRICITY":"0.00047840","INCLINATION":"57.0834","RA_OF_ASC_NODE":"13.1364","ARG_OF_PERICENTER":"350.0360","MEAN_ANOMALY":"191.3189","EPHEMERIS_TYPE":"0","CLASSIFICATION_TYPE":"U","NORAD_CAT_ID":"37847","ELEMENT_SET_NO":"999","REV_AT_EPOCH":"7149","BSTAR":"0.00000000000000","MEAN_MOTION_DOT":"-0.00000099","MEAN_MOTION_DDOT":"0.0000000000000","SEMIMAJOR_AXIS":"29600.176","PERIOD":"844.697","APOAPSIS":"23236.201","PERIAPSIS":"23207.880","OBJECT_TYPE":"PAYLOAD","RCS_SIZE":"LARGE","COUNTRY_CODE":"ESA","LAUNCH_DATE":"2011-10-21","SITE":"FRGUI","DECAY_DATE":null,"FILE":"3887900","GP_ID":"230074787","TLE_LINE0":"0 GALILEO-FM2","TLE_LINE1":"1 37847U 11060B   23105.56292813 -.00000099  00000-0  00000+0 0  9992","TLE_LINE2":"2 37847  57.0834  13.1364 0004784 350.0360 191.3189  1.70475248 71497"},{"CCSDS_OMM_VERS":"2.0","COMMENT":"GENERATED VIA SPACE-TRACK.ORG API","CREATION_DATE":"2023-04-17T19:13:34","ORIGINATOR":"18 SPCS","OBJECT_NAME":"GALILEO-FM2","OBJECT_ID":"2011-060B","CENTER_NAME":"EARTH","REF_FRAME":"TEME","TIME_SYSTEM":"UTC","MEAN_ELEMENT_THEORY":"SGP4","EPOCH":"2023-04-17T06:05:47.644224","MEAN_MOTION":"1.70475274","ECCENTRICITY":"0.00047690","INCLINATION":"57.0839","RA_OF_ASC_NODE":"13.0905","ARG_OF_PERICENTER":"350.5967","MEAN_ANOMALY":"148.6181","EPHEMERIS_TYPE":"0","CLASSIFICATION_TYPE":"U","NORAD_CAT_ID":"37847","ELEMENT_SET_NO":"999","REV_AT_EPOCH":"7140","BSTAR":"0.00000000000000","MEAN_MOTION_DOT":"-0.00000104","MEAN_MOTION_DDOT":"0.0000000000000","SEMIMAJOR_AXIS":"29600.173","PERIOD":"844.697","APOAPSIS":"23236.154","PERIAPSIS":"23207.921","OBJECT_TYPE":"PAYLOAD","RCS_SIZE":"LARGE","COUNTRY_CODE":"ESA","LAUNCH_DATE":"2011-10-21","SITE":"FRGUI","DECAY_DATE":null,"FILE":"3889215","GP_ID":"230224922","TLE_LINE0":"0 GALILEO-FM2","TLE_LINE1":"1 37847U 11060B   23107.25402366 -.00000104  00000-0  00000-0 0  9994","TLE_LINE2":"2 37847  57.0839  13.0905 0004769 350.5967 148.6181  1.70475274 71400"},{"CCSDS_OMM_VERS":"2.0","COMMENT":"GENERATED VIA SPACE-TRACK.ORG API","CREATION_DATE":"2023-04-18T17:45:33","ORIGINATOR":"18 SPCS","OBJECT_NAME":"GALILEO-FM2","OBJECT_ID":"2011-060B","CENTER_NAME":"EARTH","REF_FRAME":"TEME","TIME_SYSTEM":"UTC","MEAN_ELEMENT_THEORY":"SGP4","EPOCH":"2023-04-18T11:42:03.462912","MEAN_MOTION":"1.70475314","ECCENTRICITY":"0.00047520","INCLINATION":"57.0839","RA_OF_ASC_NODE":"13.0570","ARG_OF_PERICENTER":"350.7539","MEAN_ANOMALY":"185.4956","EPHEMERIS_TYPE":"0","CLASSIFICATION_TYPE":"U","NORAD_CAT_ID":"37847","ELEMENT_SET_NO":"999","REV_AT_EPOCH":"7142","BSTAR":"0.00000000000000","MEAN_MOTION_DOT":"-0.00000107","MEAN_MOTION_DDOT":"0.0000000000000","SEMIMAJOR_AXIS":"29600.168","PERIOD":"844.697","APOAPSIS":"23236.099","PERIAPSIS":"23207.967","OBJECT_TYPE":"PAYLOAD","RCS_SIZE":"LARGE","COUNTRY_CODE":"ESA","LAUNCH_DATE":"2011-10-21","SITE":"FRGUI","DECAY_DATE":null,"FILE":"3889684","GP_ID":"230289802","TLE_LINE0":"0 GALILEO-FM2","TLE_LINE1":"1 37847U 11060B   23108.48754008 -.00000107  00000-0  00000-0 0  9996","TLE_LINE2":"2 37847  57.0839  13.0570 0004752 350.7539 185.4956  1.70475314 71423"},{"CCSDS_OMM_VERS":"2.0","COMMENT":"GENERATED VIA SPACE-TRACK.ORG API","CREATION_DATE":"2023-04-18T18:26:12","ORIGINATOR":"18 SPCS","OBJECT_NAME":"GALILEO-FM2","OBJECT_ID":"2011-060B","CENTER_NAME":"EARTH","REF_FRAME":"TEME","TIME_SYSTEM":"UTC","MEAN_ELEMENT_THEORY":"SGP4","EPOCH":"2023-04-18T11:42:03.462912","MEAN_MOTION":"1.70475314","ECCENTRICITY":"0.00047520","INCLINATION":"57.0839","RA_OF_ASC_NODE":"13.0570","ARG_OF_PERICENTER":"350.7539","MEAN_ANOMALY":"185.4956","EPHEMERIS_TYPE":"0","CLASSIFICATION_TYPE":"U","NORAD_CAT_ID":"37847","ELEMENT_SET_NO":"999","REV_AT_EPOCH":"7154","BSTAR":"0.00000000000000","MEAN_MOTION_DOT":"-0.00000107","MEAN_MOTION_DDOT":"0.0000000000000","SEMIMAJOR_AXIS":"29600.168","PERIOD":"844.697","APOAPSIS":"23236.099","PERIAPSIS":"23207.967","OBJECT_TYPE":"PAYLOAD","RCS_SIZE":"LARGE","COUNTRY_CODE":"ESA","LAUNCH_DATE":"2011-10-21","SITE":"FRGUI","DECAY_DATE":null,"FILE":"3889746","GP_ID":"230303389","TLE_LINE0":"0 GALILEO-FM2","TLE_LINE1":"1 37847U 11060B   23108.48754008 -.00000107  00000-0  00000+0 0  9995","TLE_LINE2":"2 37847  57.0839  13.0570 0004752 350.7539 185.4956  1.70475314 71546"}]